{
  "type": "FeatureCollection",
  "features": [
    {
      "type": "Feature",
      "properties": {
        "norad_id": 43567,
        "name": "GSAT0220 (GALILEO 24)",
        "group": "gnss",
        "lat": -13.321608202672836,
        "lon": -22.305451735949845,
        "alt_km": 23213.760259724197,
        "timestamp": "2025-12-25T11:37:44.678807+00:00",
        "meta_object_name": "GSAT0220 (GALILEO 24)",
        "meta_object_id": "2018-060D",
        "meta_epoch": "2025-12-23T03:56:18.956256",
        "meta_mean_motion": 1.70475727,
        "meta_eccentricity": 0.00061193,
        "meta_inclination": 57.2279,
        "meta_ra_of_asc_node": 346.5416,
        "meta_arg_of_pericenter": 288.3355,
        "meta_mean_anomaly": 71.6054,
        "meta_ephemeris_type": 0,
        "meta_classification_type": "U",
        "meta_norad_cat_id": 43567,
        "meta_element_set_no": 999,
        "meta_rev_at_epoch": 4617,
        "meta_bstar": 0,
        "meta_mean_motion_dot": -6.3e-07,
        "meta_mean_motion_ddot": 0,
        "tle_line1": "1 43567U 18060D   25357.16410829 -.00000063  00000+0  00000+0 0  9991",
        "tle_line2": "2 43567  57.2279 346.5416 0006119 288.3355  71.6054  1.70475727 46170"
      },
      "geometry": {
        "type": "Point",
        "coordinates": [
          -22.305451735949845,
          -13.321608202672836
        ]
      }
    },
    {
      "type": "Feature",
      "properties": {
        "norad_id": 43581,
        "name": "BEIDOU-3 M5 (C23)",
        "group": "gnss",
        "lat": -41.803024303208375,
        "lon": 48.61999964067573,
        "alt_km": 21536.288420843637,
        "timestamp": "2025-12-25T11:37:44.678819+00:00",
        "meta_object_name": "BEIDOU-3 M5 (C23)",
        "meta_object_id": "2018-062A",
        "meta_epoch": "2025-12-24T01:25:43.982112",
        "meta_mean_motion": 1.86228769,
        "meta_eccentricity": 0.0001922,
        "meta_inclination": 54.09,
        "meta_ra_of_asc_node": 188.2582,
        "meta_arg_of_pericenter": 1.0455,
        "meta_mean_anomaly": 358.9913,
        "meta_ephemeris_type": 0,
        "meta_classification_type": "U",
        "meta_norad_cat_id": 43581,
        "meta_element_set_no": 999,
        "meta_rev_at_epoch": 5037,
        "meta_bstar": 0,
        "meta_mean_motion_dot": 1.01e-06,
        "meta_mean_motion_ddot": 0,
        "tle_line1": "1 43581U 18062A   25358.05953683  .00000101  00000+0  00000+0 0  9990",
        "tle_line2": "2 43581  54.0900 188.2582 0001922   1.0455 358.9913  1.86228769 50376"
      },
      "geometry": {
        "type": "Point",
        "coordinates": [
          48.61999964067573,
          -41.803024303208375
        ]
      }
    },
    {
      "type": "Feature",
      "properties": {
        "norad_id": 43582,
        "name": "BEIDOU-3 M6 (C24)",
        "group": "gnss",
        "lat": -25.99737087205932,
        "lon": 167.4979329075854,
        "alt_km": 21528.51768397894,
        "timestamp": "2025-12-25T11:37:44.678830+00:00",
        "meta_object_name": "BEIDOU-3 M6 (C24)",
        "meta_object_id": "2018-062B",
        "meta_epoch": "2025-12-23T22:08:28.739040",
        "meta_mean_motion": 1.86229712,
        "meta_eccentricity": 0.00078704,
        "meta_inclination": 54.0895,
        "meta_ra_of_asc_node": 188.252,
        "meta_arg_of_pericenter": 49.2706,
        "meta_mean_anomaly": 310.8346,
        "meta_ephemeris_type": 0,
        "meta_classification_type": "U",
        "meta_norad_cat_id": 43582,
        "meta_element_set_no": 999,
        "meta_rev_at_epoch": 5037,
        "meta_bstar": 0,
        "meta_mean_motion_dot": 1e-06,
        "meta_mean_motion_ddot": 0,
        "tle_line1": "1 43582U 18062B   25357.92255485  .00000100  00000+0  00000+0 0  9990",
        "tle_line2": "2 43582  54.0895 188.2520 0007870  49.2706 310.8346  1.86229712 50379"
      },
      "geometry": {
        "type": "Point",
        "coordinates": [
          167.4979329075854,
          -25.99737087205932
        ]
      }
    },
    {
      "type": "Feature",
      "properties": {
        "norad_id": 43602,
        "name": "BEIDOU-3 M12 (C26)",
        "group": "gnss",
        "lat": 7.161074813266478,
        "lon": -167.85972932448058,
        "alt_km": 21506.024412284973,
        "timestamp": "2025-12-25T11:37:44.678843+00:00",
        "meta_object_name": "BEIDOU-3 M12 (C26)",
        "meta_object_id": "2018-067A",
        "meta_epoch": "2025-12-24T22:25:33.195936",
        "meta_mean_motion": 1.86227842,
        "meta_eccentricity": 0.0009239,
        "meta_inclination": 54.1837,
        "meta_ra_of_asc_node": 186.9493,
        "meta_arg_of_pericenter": 41.7428,
        "meta_mean_anomaly": 318.3597,
        "meta_ephemeris_type": 0,
        "meta_classification_type": "U",
        "meta_norad_cat_id": 43602,
        "meta_element_set_no": 999,
        "meta_rev_at_epoch": 4987,
        "meta_bstar": 0,
        "meta_mean_motion_dot": 1.08e-06,
        "meta_mean_motion_ddot": 0,
        "tle_line1": "1 43602U 18067A   25358.93441199  .00000108  00000+0  00000+0 0  9997",
        "tle_line2": "2 43602  54.1837 186.9493 0009239  41.7428 318.3597  1.86227842 49878"
      },
      "geometry": {
        "type": "Point",
        "coordinates": [
          -167.85972932448058,
          7.161074813266478
        ]
      }
    },
    {
      "type": "Feature",
      "properties": {
        "norad_id": 43603,
        "name": "BEIDOU-3 M11 (C25)",
        "group": "gnss",
        "lat": -53.26258507096079,
        "lon": 111.4329515861509,
        "alt_km": 21541.834460418584,
        "timestamp": "2025-12-25T11:37:44.678854+00:00",
        "meta_object_name": "BEIDOU-3 M11 (C25)",
        "meta_object_id": "2018-067B",
        "meta_epoch": "2025-12-24T12:46:04.310976",
        "meta_mean_motion": 1.86227356,
        "meta_eccentricity": 0.00056287,
        "meta_inclination": 54.181,
        "meta_ra_of_asc_node": 186.927,
        "meta_arg_of_pericenter": 37.873,
        "meta_mean_anomaly": 322.1992,
        "meta_ephemeris_type": 0,
        "meta_classification_type": "U",
        "meta_norad_cat_id": 43603,
        "meta_element_set_no": 999,
        "meta_rev_at_epoch": 4989,
        "meta_bstar": 0,
        "meta_mean_motion_dot": 1.05e-06,
        "meta_mean_motion_ddot": 0,
        "tle_line1": "1 43603U 18067B   25358.53199434  .00000105  00000+0  00000+0 0  9993",
        "tle_line2": "2 43603  54.1810 186.9270 0005628  37.8730 322.1992  1.86227356 49897"
      },
      "geometry": {
        "type": "Point",
        "coordinates": [
          111.4329515861509,
          -53.26258507096079
        ]
      }
    },
    {
      "type": "Feature",
      "properties": {
        "norad_id": 43622,
        "name": "BEIDOU-3 M13 (C32)",
        "group": "gnss",
        "lat": -41.222162924093055,
        "lon": 32.949021222488874,
        "alt_km": 21515.360171226333,
        "timestamp": "2025-12-25T11:37:44.678868+00:00",
        "meta_object_name": "BEIDOU-3 M13 (C32)",
        "meta_object_id": "2018-072A",
        "meta_epoch": "2025-12-22T08:10:31.412640",
        "meta_mean_motion": 1.86231166,
        "meta_eccentricity": 0.00064111,
        "meta_inclination": 56.4667,
        "meta_ra_of_asc_node": 68.5024,
        "meta_arg_of_pericenter": 297.4685,
        "meta_mean_anomaly": 62.5173,
        "meta_ephemeris_type": 0,
        "meta_classification_type": "U",
        "meta_norad_cat_id": 43622,
        "meta_element_set_no": 999,
        "meta_rev_at_epoch": 4936,
        "meta_bstar": 0,
        "meta_mean_motion_dot": -2.9e-07,
        "meta_mean_motion_ddot": 0,
        "tle_line1": "1 43622U 18072A   25356.34064135 -.00000029  00000+0  00000+0 0  9992",
        "tle_line2": "2 43622  56.4667  68.5024 0006411 297.4685  62.5173  1.86231166 49361"
      },
      "geometry": {
        "type": "Point",
        "coordinates": [
          32.949021222488874,
          -41.222162924093055
        ]
      }
    },
    {
      "type": "Feature",
      "properties": {
        "norad_id": 43623,
        "name": "BEIDOU-3 M14 (C33)",
        "group": "gnss",
        "lat": 30.91505364722189,
        "lon": 91.77336658877353,
        "alt_km": 21521.021139323908,
        "timestamp": "2025-12-25T11:37:44.678880+00:00",
        "meta_object_name": "BEIDOU-3 M14 (C33)",
        "meta_object_id": "2018-072B",
        "meta_epoch": "2025-12-23T06:43:13.861056",
        "meta_mean_motion": 1.86231163,
        "meta_eccentricity": 0.00035931,
        "meta_inclination": 56.4696,
        "meta_ra_of_asc_node": 68.4654,
        "meta_arg_of_pericenter": 327.0772,
        "meta_mean_anomaly": 32.9541,
        "meta_ephemeris_type": 0,
        "meta_classification_type": "U",
        "meta_norad_cat_id": 43623,
        "meta_element_set_no": 999,
        "meta_rev_at_epoch": 4937,
        "meta_bstar": 0,
        "meta_mean_motion_dot": -2.6e-07,
        "meta_mean_motion_ddot": 0,
        "tle_line1": "1 43623U 18072B   25357.28002154 -.00000026  00000+0  00000+0 0  9997",
        "tle_line2": "2 43623  56.4696  68.4654 0003593 327.0772  32.9541  1.86231163 49375"
      },
      "geometry": {
        "type": "Point",
        "coordinates": [
          91.77336658877353,
          30.91505364722189
        ]
      }
    }
  ]
}